OBJECT_NAME,OBJECT_ID,EPOCH,MEAN_MOTION,ECCENTRICITY,INCLINATION,RA_OF_ASC_NODE,ARG_OF_PERICENTER,MEAN_ANOMALY,EPHEMERIS_TYPE,CLASSIFICATION_TYPE,NORAD_CAT_ID,ELEMENT_SET_NO,REV_AT_EPOCH,BSTAR,MEAN_MOTION_DOT,MEAN_MOTION_DDOT
S-NET D,2018-014G,2026-07-12T17:29:07.647936,15.16904418,.0006389,97.5339,98.3608,295.6032,64.4541,0,U,43186,999,46263,.14005E-3,.2692E-4,0
S-NET B,2018-014H,2026-07-12T16:11:21.024096,15.16873842,.0006937,97.5344,98.2944,289.5444,70.5039,0,U,43187,999,46262,.15043E-3,.2895E-4,0
S-NET A,2018-014J,2026-07-12T17:27:18.470304,15.16912661,.000686,97.5355,98.5607,290.3810,69.6686,0,U,43188,999,46263,.13708E-3,.2635E-4,0
S-NET C,2018-014K,2026-07-12T16:17:07.622880,15.16865140,.0008153,97.5374,98.5909,281.0963,78.9353,0,U,43189,999,46117,.15119E-3,.2909E-4,0
PAZ,2018-020A,2026-07-12T20:40:34.554720,15.19153068,.0001705,97.4454,200.8824,89.2300,270.9129,0,U,43215,999,46490,.54385E-4,.1075E-4,0
GOES 17,2018-022A,2026-07-12T19:55:46.065792,1.00271416,.0000542,1.0003,85.2906,86.2371,328.6370,0,U,43226,999,3068,0,-.184E-5,0
LKW-4,2018-025A,2026-07-12T13:19:11.949024,15.64359240,.0003468,97.6337,6.4577,184.6110,175.5117,0,U,43236,999,46399,.31574E-3,.3013E-3,0
ZHUHAI-1 OVS-02,2018-040B,2026-07-12T21:13:14.588832,15.25359158,.0004844,97.0381,209.5938,141.2696,218.8891,0,U,43440,999,45663,.18155E-3,.4514E-4,0
ZHUHAI-1 OHS-02,2018-040C,2026-07-12T20:30:40.691232,15.26247321,.0011023,97.0361,216.5310,132.3218,227.8958,0,U,43441,999,11819,.19807E-3,.5071E-4,0
GAOFEN-6,2018-048A,2026-07-12T21:24:41.900832,14.76382054,.0012156,98.0966,256.5884,88.1698,272.0904,0,U,43484,999,43718,.54651E-4,.327E-5,0
LUOJIA-1 01,2018-048B,2026-07-12T20:57:58.665024,14.87374092,.0009975,97.8103,271.6491,44.3190,315.8823,0,U,43485,999,43803,.28396E-4,.202E-5,0
PAKTES 1A,2018-056A,2026-07-12T20:02:40.422912,14.99200390,.0020056,98.1282,351.4165,27.0255,333.2006,0,U,43529,999,43576,.13278E-3,.1558E-4,0
PRSS-1,2018-056B,2026-07-12T20:18:52.897248,14.82025275,.0001313,97.7816,261.0044,83.1900,276.9463,0,U,43530,999,43223,-.42391E-5,-.85E-6,0
HAIYANG-1C,2018-068A,2026-07-12T20:22:50.587104,14.34185486,.0011352,98.5188,265.7849,25.0658,335.1076,0,U,43609,999,41076,-.36701E-4,-.146E-5,0
SSTL S1-4,2018-071A,2026-07-12T21:40:45.912288,14.96200166,.0002008,97.4999,64.4435,96.8087,263.3364,0,U,43618,999,42678,.21058E-4,.183E-5,0
HAIYANG-2B,2018-081A,2026-07-12T20:12:03.463200,13.79306395,.0000801,99.3290,202.2105,149.5339,210.5859,0,U,43655,999,38846,.55344E-4,.13E-6,0
CFOSAT,2018-083A,2026-07-12T19:52:30.698112,15.16526739,.0001912,97.3615,197.6056,75.6097,284.5349,0,U,43662,999,42632,.96316E-4,.1813E-4,0
TEN-KOH,2018-084G,2026-07-12T11:44:03.243552,15.03036085,.00099828,98.0754,26.9162,38.1645,322.0284,0,U,43677,999,41996,.14412106E-3,.1876E-4,0
DIWATA-2B,2018-084H,2026-07-12T20:14:57.386400,15.00557947,.0012966,98.1219,31.1757,91.6099,268.6609,0,U,43678,999,42006,.10534E-3,.1265E-4,0
STARS-AO,2018-084J,2026-07-12T12:45:04.199904,15.17327321,.00036091,98.0478,49.0667,85.7607,274.4037,0,U,43679,999,42131,.17779076E-3,.347E-4,0
AUTCUBE 2,2018-084K,2026-07-12T12:59:21.212736,15.10253774,.00079937,98.0693,41.0610,324.9177,35.1524,0,U,43681,999,42075,.12139039E-3,.1915E-4,0
METOP-C,2018-087A,2026-07-12T19:54:52.515072,14.21518642,.0002214,98.6631,252.9630,96.9009,263.2420,0,U,43689,999,39847,.42307E-4,.49E-6,0
ES'HAIL 2,2018-090A,2026-07-12T18:55:38.668800,1.00269701,.0002219,0.0292,50.9048,109.7092,79.7680,0,U,43700,999,2793,0,0,0
MOHAMMED VI-B,2018-095A,2026-07-12T20:25:36.780096,14.77080088,.0001756,97.9553,265.8213,94.2066,265.9345,0,U,43717,999,41197,.58383E-4,.361E-5,0
HYSIS,2018-096A,2026-07-12T20:36:24.865632,14.78665141,.0001846,97.9835,260.4038,84.3024,275.8398,0,U,43719,999,41121,-.51765E-6,-.56E-6,0
COSMOS 2530 (RODNIK-S 16),2018-097A,2026-07-12T19:31:59.405664,12.42882056,.0019085,82.5124,206.3757,344.2778,15.7707,0,U,43751,999,34547,.79736E-3,.12E-5,0
COSMOS 2531 (RODNIK-S 17),2018-097B,2026-07-12T20:03:09.271008,12.42913678,.0016719,82.5169,207.4294,4.1864,355.9353,0,U,43752,999,34549,.1376E-2,.201E-5,0
COSMOS 2532 (RODNIK-S 18),2018-097C,2026-07-12T20:43:56.680608,12.42911014,.0018155,82.5113,206.1861,5.9015,354.2275,0,U,43753,999,34546,.11597E-2,.171E-5,0
MINXSS-2,2018-099A,2026-07-12T18:11:38.124960,15.48699812,.000842,97.4535,270.8221,167.9951,192.1502,0,U,43758,999,41808,.59117E-3,.31684E-3,0
SIRION PATHFINDER-2,2018-099B,2026-07-12T16:22:26.692032,15.14765872,.0008221,97.4243,242.1349,200.6549,159.4352,0,U,43759,999,41648,.16138E-3,.293E-4,0
