S-NET D                 
1 43186U 18014G   26193.72856074  .00002692  00000+0  14005-3 0  9997
2 43186  97.5339  98.3608 0006389 295.6032  64.4541 15.16904418462631
S-NET B                 
1 43187U 18014H   26193.67454889  .00002895  00000+0  15043-3 0  9998
2 43187  97.5344  98.2944 0006937 289.5444  70.5039 15.16873842462623
S-NET A                 
1 43188U 18014J   26193.72729711  .00002635  00000+0  13708-3 0  9992
2 43188  97.5355  98.5607 0006860 290.3810  69.6686 15.16912661462638
S-NET C                 
1 43189U 18014K   26193.67856045  .00002909  00000+0  15119-3 0  9990
2 43189  97.5374  98.5909 0008153 281.0963  78.9353 15.16865140461179
PAZ                     
1 43215U 18020A   26193.86151105  .00001075  00000+0  54385-4 0  9995
2 43215  97.4454 200.8824 0001705  89.2300 270.9129 15.19153068464901
GOES 17                 
1 43226U 18022A   26193.83039428 -.00000184  00000+0  00000+0 0  9990
2 43226   1.0003  85.2906 0000542  86.2371 328.6370  1.00271416 30689
LKW-4                   
1 43236U 18025A   26193.55499941  .00030130  00000+0  31574-3 0  9990
2 43236  97.6337   6.4577 0003468 184.6110 175.5117 15.64359240463993
ZHUHAI-1 OVS-02         
1 43440U 18040B   26193.88419663  .00004514  00000+0  18155-3 0  9990
2 43440  97.0381 209.5938 0004844 141.2696 218.8891 15.25359158456635
ZHUHAI-1 OHS-02         
1 43441U 18040C   26193.85463763  .00005071  00000+0  19807-3 0  9992
2 43441  97.0361 216.5310 0011023 132.3218 227.8958 15.26247321118193
GAOFEN-6                
1 43484U 18048A   26193.89215163  .00000327  00000+0  54651-4 0  9996
2 43484  98.0966 256.5884 0012156  88.1698 272.0904 14.76382054437183
LUOJIA-1 01             
1 43485U 18048B   26193.87359566  .00000202  00000+0  28396-4 0  9990
2 43485  97.8103 271.6491 0009975  44.3190 315.8823 14.87374092438038
PAKTES 1A               
1 43529U 18056A   26193.83519008  .00001558  00000+0  13278-3 0  9990
2 43529  98.1282 351.4165 0020056  27.0255 333.2006 14.99200390435763
PRSS-1                  
1 43530U 18056B   26193.84644557 -.00000085  00000+0 -42391-5 0  9997
2 43530  97.7816 261.0044 0001313  83.1900 276.9463 14.82025275432238
HAIYANG-1C              
1 43609U 18068A   26193.84919661 -.00000146  00000+0 -36701-4 0  9993
2 43609  98.5188 265.7849 0011352  25.0658 335.1076 14.34185486410769
SSTL S1-4               
1 43618U 18071A   26193.90330917  .00000183  00000+0  21058-4 0  9993
2 43618  97.4999  64.4435 0002008  96.8087 263.3364 14.96200166426784
HAIYANG-2B              
1 43655U 18081A   26193.84170675  .00000013  00000+0  55344-4 0  9998
2 43655  99.3290 202.2105 0000801 149.5339 210.5859 13.79306395388467
CFOSAT                  
1 43662U 18083A   26193.82813308  .00001813  00000+0  96316-4 0  9996
2 43662  97.3615 197.6056 0001912  75.6097 284.5349 15.16526739426322
TEN-KOH                 
1 43677U 18084G   26193.48892643  .00001876  00000+0  14412-3 0  9999
2 43677  98.0754  26.9162 0009982  38.1645 322.0284 15.03036085419964
DIWATA-2B               
1 43678U 18084H   26193.84371975  .00001265  00000+0  10534-3 0  9993
2 43678  98.1219  31.1757 0012966  91.6099 268.6609 15.00557947420064
STARS-AO                
1 43679U 18084J   26193.53129861  .00003470  00000+0  17779-3 0  9993
2 43679  98.0478  49.0667 0003609  85.7607 274.4037 15.17327321421310
AUTCUBE 2               
1 43681U 18084K   26193.54121774  .00001915  00000+0  12139-3 0  9999
2 43681  98.0693  41.0610 0007993 324.9177  35.1524 15.10253774420755
METOP-C                 
1 43689U 18087A   26193.82977448  .00000049  00000+0  42307-4 0  9996
2 43689  98.6631 252.9630 0002214  96.9009 263.2420 14.21518642398478
ES'HAIL 2               
1 43700U 18090A   26193.78864200  .00000000  00000+0  00000+0 0  9996
2 43700   0.0292  50.9048 0002219 109.7092  79.7680  1.00269701 27931
MOHAMMED VI-B           
1 43717U 18095A   26193.85112014  .00000361  00000+0  58383-4 0  9998
2 43717  97.9553 265.8213 0001756  94.2066 265.9345 14.77080088411974
HYSIS                   
1 43719U 18096A   26193.85862113 -.00000056  00000+0 -51765-6 0  9995
2 43719  97.9835 260.4038 0001846  84.3024 275.8398 14.78665141411214
COSMOS 2530 (RODNIK-S *)
1 43751U 18097A   26193.81388201  .00000120  00000+0  79736-3 0  9994
2 43751  82.5124 206.3757 0019085 344.2778  15.7707 12.42882056345470
COSMOS 2531 (RODNIK-S *)
1 43752U 18097B   26193.83552397  .00000201  00000+0  13760-2 0  9990
2 43752  82.5169 207.4294 0016719   4.1864 355.9353 12.42913678345490
COSMOS 2532 (RODNIK-S *)
1 43753U 18097C   26193.86385047  .00000171  00000+0  11597-2 0  9992
2 43753  82.5113 206.1861 0018155   5.9015 354.2275 12.42911014345463
MINXSS-2                
1 43758U 18099A   26193.75808015  .00031684  00000+0  59117-3 0  9996
2 43758  97.4535 270.8221 0008420 167.9951 192.1502 15.48699812418080
SIRION PATHFINDER-2     
1 43759U 18099B   26193.68225338  .00002930  00000+0  16138-3 0  9998
2 43759  97.4243 242.1349 0008221 200.6549 159.4352 15.14765872416481
